{"type": "FeatureCollection", "features": [{"type": "Feature", "properties": {"norad_id": 66310, "name": "LVM3 R/B", "group": "last-30-days", "lat": 21.294824671631034, "lon": -128.15922638287512, "alt_km": 10240.218136254374, "timestamp": "2025-12-02T19:35:49.341126+00:00", "meta": {"OBJECT_NAME": "LVM3 R/B", "OBJECT_ID": "2025-249A", "EPOCH": "2025-12-01T23:22:58.655136", "MEAN_MOTION": 3.14324392, "ECCENTRICITY": 0.6668498, "INCLINATION": 21.3496, "RA_OF_ASC_NODE": 143.6271, "ARG_OF_PERICENTER": 208.7099, "MEAN_ANOMALY": 87.5029, "EPHEMERIS_TYPE": 0, "CLASSIFICATION_TYPE": "U", "NORAD_CAT_ID": 66310, "ELEMENT_SET_NO": 999, "REV_AT_EPOCH": 94, "BSTAR": 0.001238, "MEAN_MOTION_DOT": 0.00046343, "MEAN_MOTION_DDOT": -6.6665e-07}, "tle": {"line1": "1 66310U 25249A   25335.97428999  .00046343 -66665-6  12380-2 0  9995", "line2": "2 66310  21.3496 143.6271 6668498 208.7099  87.5029  3.14324392   944"}}, "geometry": {"type": "Point", "coordinates": [-128.15922638287512, 21.294824671631034]}}, {"type": "Feature", "properties": {"norad_id": 66311, "name": "CMS-03 (GSAT-7R)", "group": "last-30-days", "lat": -0.008856942156709202, "lon": 99.30996858003371, "alt_km": 35770.38647034683, "timestamp": "2025-12-02T19:35:49.341176+00:00", "meta": {"OBJECT_NAME": "CMS-03 (GSAT-7R)", "OBJECT_ID": "2025-249B", "EPOCH": "2025-12-02T07:22:54.326208", "MEAN_MOTION": 1.00268468, "ECCENTRICITY": 0.0003994, "INCLINATION": 0.1671, "RA_OF_ASC_NODE": 272.066, "ARG_OF_PERICENTER": 195.6706, "MEAN_ANOMALY": 167.883, "EPHEMERIS_TYPE": 0, "CLASSIFICATION_TYPE": "U", "NORAD_CAT_ID": 66311, "ELEMENT_SET_NO": 999, "REV_AT_EPOCH": 37, "BSTAR": 0, "MEAN_MOTION_DOT": -2.36e-06, "MEAN_MOTION_DDOT": 0}, "tle": {"line1": "1 66311U 25249B   25336.30757322 -.00000236  00000+0  00000+0 0  9997", "line2": "2 66311   0.1671 272.0660 0003994 195.6706 167.8830  1.00268468   374"}}, "geometry": {"type": "Point", "coordinates": [99.30996858003371, -0.008856942156709202]}}, {"type": "Feature", "properties": {"norad_id": 66313, "name": "YAOGAN-46", "group": "last-30-days", "lat": 17.692293846655605, "lon": 159.71836524540655, "alt_km": 7418.270597223204, "timestamp": "2025-12-02T19:35:49.341198+00:00", "meta": {"OBJECT_NAME": "YAOGAN-46", "OBJECT_ID": "2025-250A", "EPOCH": "2025-11-23T01:44:02.775840", "MEAN_MOTION": 5.35115916, "ECCENTRICITY": 0.00492374, "INCLINATION": 20.0335, "RA_OF_ASC_NODE": 104.8243, "ARG_OF_PERICENTER": 135.6954, "MEAN_ANOMALY": 224.7061, "EPHEMERIS_TYPE": 0, "CLASSIFICATION_TYPE": "U", "NORAD_CAT_ID": 66313, "ELEMENT_SET_NO": 999, "REV_AT_EPOCH": 114, "BSTAR": 0, "MEAN_MOTION_DOT": -7e-08, "MEAN_MOTION_DDOT": 0}, "tle": {"line1": "1 66313U 25250A   25327.07225435 -.00000007  00000+0  00000+0 0  9996", "line2": "2 66313  20.0335 104.8243 0049237 135.6954 224.7061  5.35115916  1148"}}, "geometry": {"type": "Point", "coordinates": [159.71836524540655, 17.692293846655605]}}, {"type": "Feature", "properties": {"norad_id": 66315, "name": "SENTINEL-1D", "group": "last-30-days", "lat": -0.3628798447411912, "lon": 161.9259008724351, "alt_km": 694.8494706117744, "timestamp": "2025-12-02T19:35:49.341213+00:00", "meta": {"OBJECT_NAME": "SENTINEL-1D", "OBJECT_ID": "2025-251A", "EPOCH": "2025-12-02T10:32:58.403040", "MEAN_MOTION": 14.5991009, "ECCENTRICITY": 0.0002584, "INCLINATION": 98.1924, "RA_OF_ASC_NODE": 341.6058, "ARG_OF_PERICENTER": 155.6832, "MEAN_ANOMALY": 204.4491, "EPHEMERIS_TYPE": 0, "CLASSIFICATION_TYPE": "U", "NORAD_CAT_ID": 66315, "ELEMENT_SET_NO": 999, "REV_AT_EPOCH": 403, "BSTAR": 7.4229e-05, "MEAN_MOTION_DOT": 3.09e-06, "MEAN_MOTION_DDOT": 0}, "tle": {"line1": "1 66315U 25251A   25336.43956485  .00000309  00000+0  74229-4 0  9998", "line2": "2 66315  98.1924 341.6058 0002584 155.6832 204.4491 14.59910090  4031"}}, "geometry": {"type": "Point", "coordinates": [161.9259008724351, -0.3628798447411912]}}, {"type": "Feature", "properties": {"norad_id": 66316, "name": "QPS-SAR-14 (YACHIHOKO-I)", "group": "last-30-days", "lat": 41.83629002658872, "lon": -134.39246475831823, "alt_km": 563.1294382280139, "timestamp": "2025-12-02T19:35:49.341225+00:00", "meta": {"OBJECT_NAME": "QPS-SAR-14 (YACHIHOKO-I)", "OBJECT_ID": "2025-252A", "EPOCH": "2025-12-01T22:22:08.570496", "MEAN_MOTION": 14.97516948, "ECCENTRICITY": 0.00069195, "INCLINATION": 42.003, "RA_OF_ASC_NODE": 134.6343, "ARG_OF_PERICENTER": 75.2493, "MEAN_ANOMALY": 284.9098, "EPHEMERIS_TYPE": 0, "CLASSIFICATION_TYPE": "U", "NORAD_CAT_ID": 66316, "ELEMENT_SET_NO": 999, "REV_AT_EPOCH": 391, "BSTAR": 0.00059360417, "MEAN_MOTION_DOT": 6.864e-05, "MEAN_MOTION_DDOT": 0}, "tle": {"line1": "1 66316U 25252A   25335.93204364  .00006864  00000+0  59360-3 0  9996", "line2": "2 66316  42.0030 134.6343 0006919  75.2493 284.9098 14.97516948  3919"}}, "geometry": {"type": "Point", "coordinates": [-134.39246475831823, 41.83629002658872]}}, {"type": "Feature", "properties": {"norad_id": 66317, "name": "ELECTRON R/B", "group": "last-30-days", "lat": 3.1355756125309933, "lon": 114.85379793982015, "alt_km": 232.8698966003467, "timestamp": "2025-12-02T19:35:49.341240+00:00", "meta": {"OBJECT_NAME": "ELECTRON R/B", "OBJECT_ID": "2025-252B", "EPOCH": "2025-11-29T21:07:58.211904", "MEAN_MOTION": 15.94243293, "ECCENTRICITY": 0.01246685, "INCLINATION": 41.9889, "RA_OF_ASC_NODE": 130.1303, "ARG_OF_PERICENTER": 46.1701, "MEAN_ANOMALY": 314.9386, "EPHEMERIS_TYPE": 0, "CLASSIFICATION_TYPE": "U", "NORAD_CAT_ID": 66317, "ELEMENT_SET_NO": 999, "REV_AT_EPOCH": 378, "BSTAR": 0.0019142518, "MEAN_MOTION_DOT": 0.01669799, "MEAN_MOTION_DDOT": 7.910989e-06}, "tle": {"line1": "1 66317U 25252B   25333.88053486  .01669799  79110-5  19143-2 0  9997", "line2": "2 66317  41.9889 130.1303 0124668  46.1701 314.9386 15.94243293  3785"}}, "geometry": {"type": "Point", "coordinates": [114.85379793982015, 3.1355756125309933]}}, {"type": "Feature", "properties": {"norad_id": 66319, "name": "STARLINK-35442", "group": "last-30-days", "lat": -10.842065302589356, "lon": -125.07913138044542, "alt_km": 445.32879270779904, "timestamp": "2025-12-02T19:35:49.341252+00:00", "meta": {"OBJECT_NAME": "STARLINK-35442", "OBJECT_ID": "2025-253A", "EPOCH": "2025-12-02T12:00:05.998752", "MEAN_MOTION": 15.40646446, "ECCENTRICITY": 0.0001205, "INCLINATION": 43.0009, "RA_OF_ASC_NODE": 44.8849, "ARG_OF_PERICENTER": 294.5991, "MEAN_ANOMALY": 303.9764, "EPHEMERIS_TYPE": 0, "CLASSIFICATION_TYPE": "U", "NORAD_CAT_ID": 66319, "ELEMENT_SET_NO": 999, "REV_AT_EPOCH": 538, "BSTAR": 0.0011276, "MEAN_MOTION_DOT": 0.00047005, "MEAN_MOTION_DDOT": 0}, "tle": {"line1": "1 66319U 25253A   25336.50006943  .00047005  00000+0  11276-2 0  9992", "line2": "2 66319  43.0009  44.8849 0001205 294.5991 303.9764 15.40646446  5385"}}, "geometry": {"type": "Point", "coordinates": [-125.07913138044542, -10.842065302589356]}}, {"type": "Feature", "properties": {"norad_id": 66320, "name": "STARLINK-34616", "group": "last-30-days", "lat": -29.680825098134484, "lon": 5.063878762885707, "alt_km": 416.5921045362966, "timestamp": "2025-12-02T19:35:49.341263+00:00", "meta": {"OBJECT_NAME": "STARLINK-34616", "OBJECT_ID": "2025-253B", "EPOCH": "2025-12-02T12:04:03.392256", "MEAN_MOTION": 15.5059712, "ECCENTRICITY": 0.000162, "INCLINATION": 43.0005, "RA_OF_ASC_NODE": 44.6062, "ARG_OF_PERICENTER": 274.0056, "MEAN_ANOMALY": 86.0619, "EPHEMERIS_TYPE": 0, "CLASSIFICATION_TYPE": "U", "NORAD_CAT_ID": 66320, "ELEMENT_SET_NO": 999, "REV_AT_EPOCH": 542, "BSTAR": 0.0018492, "MEAN_MOTION_DOT": 0.00109746, "MEAN_MOTION_DDOT": 0}, "tle": {"line1": "1 66320U 25253B   25336.50281704  .00109746  00000+0  18492-2 0  9992", "line2": "2 66320  43.0005  44.6062 0001620 274.0056  86.0619 15.50597120  5422"}}, "geometry": {"type": "Point", "coordinates": [5.063878762885707, -29.680825098134484]}}, {"type": "Feature", "properties": {"norad_id": 66321, "name": "STARLINK-34615", "group": "last-30-days", "lat": -42.06942772732514, "lon": -62.37001368548113, "alt_km": 381.0221357404571, "timestamp": "2025-12-02T19:35:49.341275+00:00", "meta": {"OBJECT_NAME": "STARLINK-34615", "OBJECT_ID": "2025-253C", "EPOCH": "2025-12-01T13:21:43.206912", "MEAN_MOTION": 15.63263158, "ECCENTRICITY": 0.00023769, "INCLINATION": 42.9996, "RA_OF_ASC_NODE": 49.5325, "ARG_OF_PERICENTER": 5.4675, "MEAN_ANOMALY": 354.6216, "EPHEMERIS_TYPE": 0, "CLASSIFICATION_TYPE": "U", "NORAD_CAT_ID": 66321, "ELEMENT_SET_NO": 999, "REV_AT_EPOCH": 520, "BSTAR": 0.0016579406, "MEAN_MOTION_DOT": 0.00159038, "MEAN_MOTION_DDOT": 0}, "tle": {"line1": "1 66321U 25253C   25335.55675008  .00159038  00000+0  16579-2 0  9994", "line2": "2 66321  42.9996  49.5325 0002376   5.4675 354.6216 15.63263158  5206"}}, "geometry": {"type": "Point", "coordinates": [-62.37001368548113, -42.06942772732514]}}, {"type": "Feature", "properties": {"norad_id": 66322, "name": "STARLINK-35292", "group": "last-30-days", "lat": -33.091139650139844, "lon": -92.66212576916205, "alt_km": 446.0755068151211, "timestamp": "2025-12-02T19:35:49.341286+00:00", "meta": {"OBJECT_NAME": "STARLINK-35292", "OBJECT_ID": "2025-253D", "EPOCH": "2025-12-02T06:00:02.999808", "MEAN_MOTION": 15.40655905, "ECCENTRICITY": 0.00016913, "INCLINATION": 43.0008, "RA_OF_ASC_NODE": 46.2316, "ARG_OF_PERICENTER": 277.9556, "MEAN_ANOMALY": 49.3405, "EPHEMERIS_TYPE": 0, "CLASSIFICATION_TYPE": "U", "NORAD_CAT_ID": 66322, "ELEMENT_SET_NO": 999, "REV_AT_EPOCH": 524, "BSTAR": 0.0016460912, "MEAN_MOTION_DOT": 0.00068981, "MEAN_MOTION_DDOT": 0}, "tle": {"line1": "1 66322U 25253D   25336.25003472  .00068981  00000+0  16461-2 0  9999", "line2": "2 66322  43.0008  46.2316 0001691 277.9556  49.3405 15.40655905  5242"}}, "geometry": {"type": "Point", "coordinates": [-92.66212576916205, -33.091139650139844]}}]}